{
    "links": {
        "self": "http://www.neowsapp.com/rest/v1/neo/3789685?api_key=iIulBulltgU6a56xZRHN4H3l9WmuAYTsLGpBGhQ2"
    },
    "id": "3789685",
    "neo_reference_id": "3789685",
    "name": "(2017 WO15)",
    "designation": "2017 WO15",
    "nasa_jpl_url": "http://ssd.jpl.nasa.gov/sbdb.cgi?sstr=3789685",
    "absolute_magnitude_h": 26.5,
    "estimated_diameter": {
        "kilometers": {
            "estimated_diameter_min": 0.0133215567,
            "estimated_diameter_max": 0.0297879063
        },
        "meters": {
            "estimated_diameter_min": 13.3215566698,
            "estimated_diameter_max": 29.7879062798
        },
        "miles": {
            "estimated_diameter_min": 0.008277629,
            "estimated_diameter_max": 0.0185093411
        },
        "feet": {
            "estimated_diameter_min": 43.7058959846,
            "estimated_diameter_max": 97.7293544391
        }
    },
    "is_potentially_hazardous_asteroid": false,
    "close_approach_data": [
        {
            "close_approach_date": "2017-11-19",
            "close_approach_date_full": "2017-Nov-19 20:05",
            "epoch_date_close_approach": 1511121900000,
            "relative_velocity": {
                "kilometers_per_second": "12.9094428572",
                "kilometers_per_hour": "46473.9942859621",
                "miles_per_hour": "28877.1327272969"
            },
            "miss_distance": {
                "astronomical": "0.0092850143",
                "lunar": "3.6118705627",
                "kilometers": "1389018.362199541",
                "miles": "863095.9879780258"
            },
            "orbiting_body": "Moon"
        },
        {
            "close_approach_date": "2017-11-20",
            "close_approach_date_full": "2017-Nov-20 04:05",
            "epoch_date_close_approach": 1511150700000,
            "relative_velocity": {
                "kilometers_per_second": "12.7088741128",
                "kilometers_per_hour": "45751.946806183",
                "miles_per_hour": "28428.4805029863"
            },
            "miss_distance": {
                "astronomical": "0.0090126918",
                "lunar": "3.5059371102",
                "kilometers": "1348279.496246466",
                "miles": "837782.0304985908"
            },
            "orbiting_body": "Earth"
        }
    ],
    "orbital_data": {
        "orbit_id": "2",
        "orbit_determination_date": "2019-07-19 05:26:32",
        "first_observation_date": "2017-11-24",
        "last_observation_date": "2017-11-26",
        "data_arc_in_days": 2,
        "observations_used": 31,
        "orbit_uncertainty": "8",
        "minimum_orbit_intersection": ".00550567",
        "jupiter_tisserand_invariant": "3.544",
        "epoch_osculation": "2458082.5",
        "eccentricity": ".5821160002990935",
        "semi_major_axis": "2.065366954339636",
        "inclination": ".5468922339227674",
        "ascending_node_longitude": "169.5465058662811",
        "orbital_period": "1084.162204300053",
        "perihelion_distance": ".8630838037295268",
        "perihelion_argument": "198.9611406955969",
        "aphelion_distance": "3.267650104949746",
        "perihelion_time": "2458042.753715599593",
        "mean_anomaly": "13.19789818109768",
        "mean_motion": ".3320536341998936",
        "equinox": "J2000",
        "orbit_class": {
            "orbit_class_type": "APO",
            "orbit_class_description": "Near-Earth asteroid orbits which cross the Earth’s orbit similar to that of 1862 Apollo",
            "orbit_class_range": "a (semi-major axis) > 1.0 AU; q (perihelion) < 1.017 AU"
        }
    },
    "is_sentry_object": false
}